[{"OBJECT_NAME":"STARLINK-3894","OBJECT_ID":"2022-049BA","EPOCH":"2026-03-09T05:12:25.833888","MEAN_MOTION":15.08841986,"ECCENTRICITY":0.00014673,"INCLINATION":53.2174,"RA_OF_ASC_NODE":51.2384,"ARG_OF_PERICENTER":99.3621,"MEAN_ANOMALY":260.7537,"EPHEMERIS_TYPE":0,"CLASSIFICATION_TYPE":"U","NORAD_CAT_ID":52499,"ELEMENT_SET_NO":999,"REV_AT_EPOCH":21232,"BSTAR":2.6451027e-5,"MEAN_MOTION_DOT":1.33e-6,"MEAN_MOTION_DDOT":0},{"OBJECT_NAME":"COSMOS 374 DEB","OBJECT_ID":"1970-089DD","EPOCH":"2026-03-09T00:30:31.749120","MEAN_MOTION":14.57132291,"ECCENTRICITY":0.02939814,"INCLINATION":62.3835,"RA_OF_ASC_NODE":49.0638,"ARG_OF_PERICENTER":167.8535,"MEAN_ANOMALY":192.9834,"EPHEMERIS_TYPE":0,"CLASSIFICATION_TYPE":"U","NORAD_CAT_ID":18517,"ELEMENT_SET_NO":999,"REV_AT_EPOCH":85937,"BSTAR":0.0016091669,"MEAN_MOTION_DOT":0.00013075,"MEAN_MOTION_DDOT":0}]
